AETHER-2                
1 58299U 23174AV  26068.71793741  .00008341  00000+0  26166-3 0  9990
2 58299  97.3931 151.9008 0008630 139.5247 220.6639 15.33264165129982
STARLINK-31358          
1 58977U 24031N   26068.86202153  .00007251  00000+0  25657-3 0  9997
2 58977  53.1603 295.5891 0001137 106.8746 253.2379 15.30215488116544
